ORBCOMM FM24            
1 25478U 98053D   24337.51211614  .00003539  00000+0  12276-2 0  9990
2 25478  45.0062 120.9660 0001692 262.8161  97.2494 14.37086721369140
ORBCOMM FM25            
1 25479U 98053E   24337.48067000  .00003494  00000+0  12131-2 0  9995
2 25479  45.0052 119.3687 0003107 315.8661  44.1939 14.37074368369439
ORBCOMM FM26            
1 25480U 98053F   24337.51135023  .00003222  00000+0  11401-2 0  9990
2 25480  45.0050 114.3654 0004537 350.2034   9.8724 14.36287795369364
ORBCOMM FM27            
1 25481U 98053G   24337.53979030  .00003391  00000+0  11787-2 0  9991
2 25481  45.0039 119.3408 0001514 205.8574 154.2198 14.37071192369374
ORBCOMM FM28            
1 25482U 98053H   24337.54089266  .00003316  00000+0  11466-2 0  9997
2 25482  45.0061  57.1984 0002558   2.1925 357.8934 14.37378915370054
ORBCOMM FM30            
1 25980U 99065A   24337.38367035  .00003623  00000+0  12718-2 0  9991
2 25980  45.0320 300.6972 0004835  90.3679 269.7723 14.36450609306149
ORBCOMM FM31            
1 25981U 99065B   24337.55993711  .00003100  00000+0  10959-2 0  9992
2 25981  45.0232 293.4315 0001956 119.1233 240.9811 14.36424761305721
ORBCOMM FM32            
1 25982U 99065C   24337.33547306  .00003825  00000+0  13671-2 0  9992
2 25982  45.0161 309.7364 0003782 124.4422 235.6783 14.35452765306304
