<?xml version="1.0" encoding="UTF-8"?>
<ndm xmlns:xsi="http://www.w3.org/2001/XMLSchema-instance" xsi:noNamespaceSchemaLocation="https://sanaregistry.org/r/ndmxml_unqualified/ndmxml-2.0.0-master-2.0.xsd">
<omm id="CCSDS_OMM_VERS" version="2.0">
<header><CREATION_DATE/><ORIGINATOR/></header><body><segment><metadata><OBJECT_NAME>ORBCOMM FM24</OBJECT_NAME><OBJECT_ID>1998-053D</OBJECT_ID><CENTER_NAME>EARTH</CENTER_NAME><REF_FRAME>TEME</REF_FRAME><TIME_SYSTEM>UTC</TIME_SYSTEM><MEAN_ELEMENT_THEORY>SGP4</MEAN_ELEMENT_THEORY></metadata><data><meanElements><EPOCH>2024-12-02T12:17:26.834496</EPOCH><MEAN_MOTION>14.37086721</MEAN_MOTION><ECCENTRICITY>.0001692</ECCENTRICITY><INCLINATION>45.0062</INCLINATION><RA_OF_ASC_NODE>120.9660</RA_OF_ASC_NODE><ARG_OF_PERICENTER>262.8161</ARG_OF_PERICENTER><MEAN_ANOMALY>97.2494</MEAN_ANOMALY></meanElements><tleParameters><EPHEMERIS_TYPE>0</EPHEMERIS_TYPE><CLASSIFICATION_TYPE>U</CLASSIFICATION_TYPE><NORAD_CAT_ID>25478</NORAD_CAT_ID><ELEMENT_SET_NO>999</ELEMENT_SET_NO><REV_AT_EPOCH>36914</REV_AT_EPOCH><BSTAR>.12276E-2</BSTAR><MEAN_MOTION_DOT>.3539E-4</MEAN_MOTION_DOT><MEAN_MOTION_DDOT>0</MEAN_MOTION_DDOT></tleParameters></data></segment></body></omm>
<omm id="CCSDS_OMM_VERS" version="2.0">
<header><CREATION_DATE/><ORIGINATOR/></header><body><segment><metadata><OBJECT_NAME>ORBCOMM FM25</OBJECT_NAME><OBJECT_ID>1998-053E</OBJECT_ID><CENTER_NAME>EARTH</CENTER_NAME><REF_FRAME>TEME</REF_FRAME><TIME_SYSTEM>UTC</TIME_SYSTEM><MEAN_ELEMENT_THEORY>SGP4</MEAN_ELEMENT_THEORY></metadata><data><meanElements><EPOCH>2024-12-02T11:32:09.888000</EPOCH><MEAN_MOTION>14.37074368</MEAN_MOTION><ECCENTRICITY>.0003107</ECCENTRICITY><INCLINATION>45.0052</INCLINATION><RA_OF_ASC_NODE>119.3687</RA_OF_ASC_NODE><ARG_OF_PERICENTER>315.8661</ARG_OF_PERICENTER><MEAN_ANOMALY>44.1939</MEAN_ANOMALY></meanElements><tleParameters><EPHEMERIS_TYPE>0</EPHEMERIS_TYPE><CLASSIFICATION_TYPE>U</CLASSIFICATION_TYPE><NORAD_CAT_ID>25479</NORAD_CAT_ID><ELEMENT_SET_NO>999</ELEMENT_SET_NO><REV_AT_EPOCH>36943</REV_AT_EPOCH><BSTAR>.12131E-2</BSTAR><MEAN_MOTION_DOT>.3494E-4</MEAN_MOTION_DOT><MEAN_MOTION_DDOT>0</MEAN_MOTION_DDOT></tleParameters></data></segment></body></omm>
<omm id="CCSDS_OMM_VERS" version="2.0">
<header><CREATION_DATE/><ORIGINATOR/></header><body><segment><metadata><OBJECT_NAME>ORBCOMM FM26</OBJECT_NAME><OBJECT_ID>1998-053F</OBJECT_ID><CENTER_NAME>EARTH</CENTER_NAME><REF_FRAME>TEME</REF_FRAME><TIME_SYSTEM>UTC</TIME_SYSTEM><MEAN_ELEMENT_THEORY>SGP4</MEAN_ELEMENT_THEORY></metadata><data><meanElements><EPOCH>2024-12-02T12:16:20.659872</EPOCH><MEAN_MOTION>14.36287795</MEAN_MOTION><ECCENTRICITY>.0004537</ECCENTRICITY><INCLINATION>45.0050</INCLINATION><RA_OF_ASC_NODE>114.3654</RA_OF_ASC_NODE><ARG_OF_PERICENTER>350.2034</ARG_OF_PERICENTER><MEAN_ANOMALY>9.8724</MEAN_ANOMALY></meanElements><tleParameters><EPHEMERIS_TYPE>0</EPHEMERIS_TYPE><CLASSIFICATION_TYPE>U</CLASSIFICATION_TYPE><NORAD_CAT_ID>25480</NORAD_CAT_ID><ELEMENT_SET_NO>999</ELEMENT_SET_NO><REV_AT_EPOCH>36936</REV_AT_EPOCH><BSTAR>.11401E-2</BSTAR><MEAN_MOTION_DOT>.3222E-4</MEAN_MOTION_DOT><MEAN_MOTION_DDOT>0</MEAN_MOTION_DDOT></tleParameters></data></segment></body></omm>
<omm id="CCSDS_OMM_VERS" version="2.0">
<header><CREATION_DATE/><ORIGINATOR/></header><body><segment><metadata><OBJECT_NAME>ORBCOMM FM27</OBJECT_NAME><OBJECT_ID>1998-053G</OBJECT_ID><CENTER_NAME>EARTH</CENTER_NAME><REF_FRAME>TEME</REF_FRAME><TIME_SYSTEM>UTC</TIME_SYSTEM><MEAN_ELEMENT_THEORY>SGP4</MEAN_ELEMENT_THEORY></metadata><data><meanElements><EPOCH>2024-12-02T12:57:17.881920</EPOCH><MEAN_MOTION>14.37071192</MEAN_MOTION><ECCENTRICITY>.0001514</ECCENTRICITY><INCLINATION>45.0039</INCLINATION><RA_OF_ASC_NODE>119.3408</RA_OF_ASC_NODE><ARG_OF_PERICENTER>205.8574</ARG_OF_PERICENTER><MEAN_ANOMALY>154.2198</MEAN_ANOMALY></meanElements><tleParameters><EPHEMERIS_TYPE>0</EPHEMERIS_TYPE><CLASSIFICATION_TYPE>U</CLASSIFICATION_TYPE><NORAD_CAT_ID>25481</NORAD_CAT_ID><ELEMENT_SET_NO>999</ELEMENT_SET_NO><REV_AT_EPOCH>36937</REV_AT_EPOCH><BSTAR>.11787E-2</BSTAR><MEAN_MOTION_DOT>.3391E-4</MEAN_MOTION_DOT><MEAN_MOTION_DDOT>0</MEAN_MOTION_DDOT></tleParameters></data></segment></body></omm>
<omm id="CCSDS_OMM_VERS" version="2.0">
<header><CREATION_DATE/><ORIGINATOR/></header><body><segment><metadata><OBJECT_NAME>ORBCOMM FM28</OBJECT_NAME><OBJECT_ID>1998-053H</OBJECT_ID><CENTER_NAME>EARTH</CENTER_NAME><REF_FRAME>TEME</REF_FRAME><TIME_SYSTEM>UTC</TIME_SYSTEM><MEAN_ELEMENT_THEORY>SGP4</MEAN_ELEMENT_THEORY></metadata><data><meanElements><EPOCH>2024-12-02T12:58:53.125824</EPOCH><MEAN_MOTION>14.37378915</MEAN_MOTION><ECCENTRICITY>.0002558</ECCENTRICITY><INCLINATION>45.0061</INCLINATION><RA_OF_ASC_NODE>57.1984</RA_OF_ASC_NODE><ARG_OF_PERICENTER>2.1925</ARG_OF_PERICENTER><MEAN_ANOMALY>357.8934</MEAN_ANOMALY></meanElements><tleParameters><EPHEMERIS_TYPE>0</EPHEMERIS_TYPE><CLASSIFICATION_TYPE>U</CLASSIFICATION_TYPE><NORAD_CAT_ID>25482</NORAD_CAT_ID><ELEMENT_SET_NO>999</ELEMENT_SET_NO><REV_AT_EPOCH>37005</REV_AT_EPOCH><BSTAR>.11466E-2</BSTAR><MEAN_MOTION_DOT>.3316E-4</MEAN_MOTION_DOT><MEAN_MOTION_DDOT>0</MEAN_MOTION_DDOT></tleParameters></data></segment></body></omm>
<omm id="CCSDS_OMM_VERS" version="2.0">
<header><CREATION_DATE/><ORIGINATOR/></header><body><segment><metadata><OBJECT_NAME>ORBCOMM FM30</OBJECT_NAME><OBJECT_ID>1999-065A</OBJECT_ID><CENTER_NAME>EARTH</CENTER_NAME><REF_FRAME>TEME</REF_FRAME><TIME_SYSTEM>UTC</TIME_SYSTEM><MEAN_ELEMENT_THEORY>SGP4</MEAN_ELEMENT_THEORY></metadata><data><meanElements><EPOCH>2024-12-02T09:12:29.118240</EPOCH><MEAN_MOTION>14.36450609</MEAN_MOTION><ECCENTRICITY>.0004835</ECCENTRICITY><INCLINATION>45.0320</INCLINATION><RA_OF_ASC_NODE>300.6972</RA_OF_ASC_NODE><ARG_OF_PERICENTER>90.3679</ARG_OF_PERICENTER><MEAN_ANOMALY>269.7723</MEAN_ANOMALY></meanElements><tleParameters><EPHEMERIS_TYPE>0</EPHEMERIS_TYPE><CLASSIFICATION_TYPE>U</CLASSIFICATION_TYPE><NORAD_CAT_ID>25980</NORAD_CAT_ID><ELEMENT_SET_NO>999</ELEMENT_SET_NO><REV_AT_EPOCH>30614</REV_AT_EPOCH><BSTAR>.12718E-2</BSTAR><MEAN_MOTION_DOT>.3623E-4</MEAN_MOTION_DOT><MEAN_MOTION_DDOT>0</MEAN_MOTION_DDOT></tleParameters></data></segment></body></omm>
<omm id="CCSDS_OMM_VERS" version="2.0">
<header><CREATION_DATE/><ORIGINATOR/></header><body><segment><metadata><OBJECT_NAME>ORBCOMM FM31</OBJECT_NAME><OBJECT_ID>1999-065B</OBJECT_ID><CENTER_NAME>EARTH</CENTER_NAME><REF_FRAME>TEME</REF_FRAME><TIME_SYSTEM>UTC</TIME_SYSTEM><MEAN_ELEMENT_THEORY>SGP4</MEAN_ELEMENT_THEORY></metadata><data><meanElements><EPOCH>2024-12-02T13:26:18.566304</EPOCH><MEAN_MOTION>14.36424761</MEAN_MOTION><ECCENTRICITY>.0001956</ECCENTRICITY><INCLINATION>45.0232</INCLINATION><RA_OF_ASC_NODE>293.4315</RA_OF_ASC_NODE><ARG_OF_PERICENTER>119.1233</ARG_OF_PERICENTER><MEAN_ANOMALY>240.9811</MEAN_ANOMALY></meanElements><tleParameters><EPHEMERIS_TYPE>0</EPHEMERIS_TYPE><CLASSIFICATION_TYPE>U</CLASSIFICATION_TYPE><NORAD_CAT_ID>25981</NORAD_CAT_ID><ELEMENT_SET_NO>999</ELEMENT_SET_NO><REV_AT_EPOCH>30572</REV_AT_EPOCH><BSTAR>.10959E-2</BSTAR><MEAN_MOTION_DOT>.31E-4</MEAN_MOTION_DOT><MEAN_MOTION_DDOT>0</MEAN_MOTION_DDOT></tleParameters></data></segment></body></omm>
<omm id="CCSDS_OMM_VERS" version="2.0">
<header><CREATION_DATE/><ORIGINATOR/></header><body><segment><metadata><OBJECT_NAME>ORBCOMM FM32</OBJECT_NAME><OBJECT_ID>1999-065C</OBJECT_ID><CENTER_NAME>EARTH</CENTER_NAME><REF_FRAME>TEME</REF_FRAME><TIME_SYSTEM>UTC</TIME_SYSTEM><MEAN_ELEMENT_THEORY>SGP4</MEAN_ELEMENT_THEORY></metadata><data><meanElements><EPOCH>2024-12-02T08:03:04.872384</EPOCH><MEAN_MOTION>14.35452765</MEAN_MOTION><ECCENTRICITY>.0003782</ECCENTRICITY><INCLINATION>45.0161</INCLINATION><RA_OF_ASC_NODE>309.7364</RA_OF_ASC_NODE><ARG_OF_PERICENTER>124.4422</ARG_OF_PERICENTER><MEAN_ANOMALY>235.6783</MEAN_ANOMALY></meanElements><tleParameters><EPHEMERIS_TYPE>0</EPHEMERIS_TYPE><CLASSIFICATION_TYPE>U</CLASSIFICATION_TYPE><NORAD_CAT_ID>25982</NORAD_CAT_ID><ELEMENT_SET_NO>999</ELEMENT_SET_NO><REV_AT_EPOCH>30630</REV_AT_EPOCH><BSTAR>.13671E-2</BSTAR><MEAN_MOTION_DOT>.3825E-4</MEAN_MOTION_DOT><MEAN_MOTION_DDOT>0</MEAN_MOTION_DDOT></tleParameters></data></segment></body></omm>

</ndm>
